start=new Date('2022-12-11T00:00:00.000Z').valueOf();
sats=[{"GP_ID":"219978675","CLASSIFICATION_TYPE":"U","BSTAR":"0.00003052400000","INCLINATION":"53.2168","DECAY_DATE":null,"MEAN_MOTION":"15.08845187","RA_OF_ASC_NODE":"148.3609","REF_FRAME":"TEME","TIME_SYSTEM":"UTC","LAUNCH_DATE":"2021-11-13","SEMIMAJOR_AXIS":"6917.865","FILE":"3688965","NORAD_CAT_ID":"49424","MEAN_MOTION_DOT":"0.00000198","MEAN_ELEMENT_THEORY":"SGP4","MEAN_ANOMALY":"306.9789","PERIAPSIS":"538.225","REV_AT_EPOCH":"5974","ARG_OF_PERICENTER":"53.1402","PERIOD":"95.437","TLE_LINE1":"1 49424U 21104S   22344.78743800  .00000198  00000-0  30524-4 0  9999","ECCENTRICITY":"0.00021750","OBJECT_ID":"2021-104S","OBJECT_NAME":"STARLINK-3135","SITE":"AFETR","TLE_LINE2":"2 49424  53.2168 148.3609 0002175  53.1402 306.9789 15.08845187 59745","ELEMENT_SET_NO":"999","MEAN_MOTION_DDOT":"0.0000000000000","APOAPSIS":"541.234","COUNTRY_CODE":"US","EPOCH":"2022-12-10T18:53:54.643200","OBJECT_TYPE":"PAYLOAD","RCS_SIZE":"LARGE","CENTER_NAME":"EARTH","EPHEMERIS_TYPE":"0"},{"GP_ID":"219977423","CLASSIFICATION_TYPE":"U","BSTAR":"-0.00010754000000","INCLINATION":"53.2162","DECAY_DATE":null,"TIME_SYSTEM":"UTC","LAUNCH_DATE":"2021-11-13","SEMIMAJOR_AXIS":"6917.920","RA_OF_ASC_NODE":"148.4342","MEAN_MOTION":"15.08826893","REF_FRAME":"TEME","PERIAPSIS":"537.316","MEAN_ANOMALY":"316.6230","REV_AT_EPOCH":"5975","FILE":"3688965","NORAD_CAT_ID":"49425","MEAN_MOTION_DOT":"-0.00002000","MEAN_ELEMENT_THEORY":"SGP4","ECCENTRICITY":"0.00035690","ARG_OF_PERICENTER":"43.5044","PERIOD":"95.438","TLE_LINE1":"1 49425U 21104T   22344.77272336 -.00002000  00000-0 -10754-3 0  9998","TLE_LINE2":"2 49425  53.2162 148.4342 0003569  43.5044 316.6230 15.08826893 59751","OBJECT_ID":"2021-104T","SITE":"AFETR","OBJECT_NAME":"STARLINK-3139","COUNTRY_CODE":"US","EPOCH":"2022-12-10T18:32:43.298304","ELEMENT_SET_NO":"999","MEAN_MOTION_DDOT":"0.0000000000000","APOAPSIS":"542.254","RCS_SIZE":"LARGE","OBJECT_TYPE":"PAYLOAD","EPHEMERIS_TYPE":"0","CENTER_NAME":"EARTH"},{"EPHEMERIS_TYPE":"0","CENTER_NAME":"EARTH","RCS_SIZE":"LARGE","OBJECT_TYPE":"PAYLOAD","EPOCH":"2022-12-10T18:43:18.168096","COUNTRY_CODE":"US","MEAN_MOTION_DDOT":"0.0000000000000","APOAPSIS":"541.399","ELEMENT_SET_NO":"999","TLE_LINE2":"2 49426  53.2148 148.3956 0002414  47.6349 312.4847 15.08845294 59740","OBJECT_ID":"2021-104U","SITE":"AFETR","OBJECT_NAME":"STARLINK-3114","ECCENTRICITY":"0.00024140","PERIOD":"95.437","TLE_LINE1":"1 49426U 21104U   22344.78007139  .00000716  00000-0  63065-4 0  9991","ARG_OF_PERICENTER":"47.6349","REV_AT_EPOCH":"5974","PERIAPSIS":"538.059","MEAN_ANOMALY":"312.4847","MEAN_MOTION_DOT":"0.00000716","FILE":"3688965","NORAD_CAT_ID":"49426","MEAN_ELEMENT_THEORY":"SGP4","LAUNCH_DATE":"2021-11-13","SEMIMAJOR_AXIS":"6917.864","TIME_SYSTEM":"UTC","RA_OF_ASC_NODE":"148.3956","MEAN_MOTION":"15.08845294","REF_FRAME":"TEME","INCLINATION":"53.2148","DECAY_DATE":null,"GP_ID":"219977673","BSTAR":"0.00006306500000","CLASSIFICATION_TYPE":"U"},{"EPOCH":"2022-12-10T18:27:25.296192","COUNTRY_CODE":"US","APOAPSIS":"541.901","MEAN_MOTION_DDOT":"0.0000000000000","ELEMENT_SET_NO":"999","TLE_LINE2":"2 49427  53.2165 148.4500 0003115  50.7479 309.3789 15.08839809 59750","SITE":"AFETR","OBJECT_NAME":"STARLINK-3131","OBJECT_ID":"2021-104V","EPHEMERIS_TYPE":"0","CENTER_NAME":"EARTH","RCS_SIZE":"LARGE","OBJECT_TYPE":"PAYLOAD","SEMIMAJOR_AXIS":"6917.881","LAUNCH_DATE":"2021-11-13","TIME_SYSTEM":"UTC","REF_FRAME":"TEME","MEAN_MOTION":"15.08839809","RA_OF_ASC_NODE":"148.4500","DECAY_DATE":null,"INCLINATION":"53.2165","CLASSIFICATION_TYPE":"U","BSTAR":"0.00002076600000","GP_ID":"219977924","ECCENTRICITY":"0.00031150","TLE_LINE1":"1 49427U 21104V   22344.76904278  .00000042  00000-0  20766-4 0  9993","PERIOD":"95.438","ARG_OF_PERICENTER":"50.7479","REV_AT_EPOCH":"5975","MEAN_ANOMALY":"309.3789","PERIAPSIS":"537.591","MEAN_ELEMENT_THEORY":"SGP4","NORAD_CAT_ID":"49427","FILE":"3688965","MEAN_MOTION_DOT":"0.00000042"},{"EPOCH":"2022-12-10T18:12:53.877888","COUNTRY_CODE":"US","APOAPSIS":"541.844","MEAN_MOTION_DDOT":"0.0000000000000","ELEMENT_SET_NO":"999","TLE_LINE2":"2 49428  53.2176 148.4944 0003024  55.6559 304.4719 15.08837867 59758","OBJECT_NAME":"STARLINK-3121","SITE":"AFETR","OBJECT_ID":"2021-104W","EPHEMERIS_TYPE":"0","CENTER_NAME":"EARTH","RCS_SIZE":"LARGE","OBJECT_TYPE":"PAYLOAD","SEMIMAJOR_AXIS":"6917.887","LAUNCH_DATE":"2021-11-13","TIME_SYSTEM":"UTC","REF_FRAME":"TEME","MEAN_MOTION":"15.08837867","RA_OF_ASC_NODE":"148.4944","DECAY_DATE":null,"INCLINATION":"53.2176","BSTAR":"0.00003824500000","CLASSIFICATION_TYPE":"U","GP_ID":"219978175","ECCENTRICITY":"0.00030240","PERIOD":"95.438","TLE_LINE1":"1 49428U 21104W   22344.75895692  .00000320  00000-0  38245-4 0  9992","ARG_OF_PERICENTER":"55.6559","REV_AT_EPOCH":"5975","PERIAPSIS":"537.660","MEAN_ANOMALY":"304.4719","MEAN_ELEMENT_THEORY":"SGP4","MEAN_MOTION_DOT":"0.00000320","FILE":"3688965","NORAD_CAT_ID":"49428"},{"MEAN_MOTION":"15.08832469","RA_OF_ASC_NODE":"148.7690","REF_FRAME":"TEME","TIME_SYSTEM":"UTC","LAUNCH_DATE":"2021-11-13","SEMIMAJOR_AXIS":"6917.903","GP_ID":"219976923","BSTAR":"0.00004949000000","CLASSIFICATION_TYPE":"U","INCLINATION":"53.2182","DECAY_DATE":null,"ARG_OF_PERICENTER":"53.4271","PERIOD":"95.438","TLE_LINE1":"1 49430U 21104Y   22344.69912598  .00000499  00000-0  49490-4 0  9994","ECCENTRICITY":"0.00023670","FILE":"3688965","MEAN_MOTION_DOT":"0.00000499","NORAD_CAT_ID":"49430","MEAN_ELEMENT_THEORY":"SGP4","PERIAPSIS":"538.131","MEAN_ANOMALY":"306.6939","REV_AT_EPOCH":"5974","ELEMENT_SET_NO":"999","MEAN_MOTION_DDOT":"0.0000000000000","APOAPSIS":"541.406","COUNTRY_CODE":"US","EPOCH":"2022-12-10T16:46:44.484672","OBJECT_ID":"2021-104Y","OBJECT_NAME":"STARLINK-3138","SITE":"AFETR","TLE_LINE2":"2 49430  53.2182 148.7690 0002367  53.4271 306.6939 15.08832469 59745","CENTER_NAME":"EARTH","EPHEMERIS_TYPE":"0","OBJECT_TYPE":"PAYLOAD","RCS_SIZE":"LARGE"},{"DECAY_DATE":null,"INCLINATION":"53.2169","BSTAR":"0.00001301900000","CLASSIFICATION_TYPE":"U","GP_ID":"219977173","SEMIMAJOR_AXIS":"6917.868","LAUNCH_DATE":"2021-11-13","TIME_SYSTEM":"UTC","REF_FRAME":"TEME","RA_OF_ASC_NODE":"148.6452","MEAN_MOTION":"15.08843954","REV_AT_EPOCH":"5974","MEAN_ANOMALY":"312.7355","PERIAPSIS":"537.815","MEAN_ELEMENT_THEORY":"SGP4","FILE":"3688965","NORAD_CAT_ID":"49431","MEAN_MOTION_DOT":"-0.00000081","ECCENTRICITY":"0.00027730","PERIOD":"95.437","TLE_LINE1":"1 49431U 21104Z   22344.72582793 -.00000081  00000-0  13019-4 0  9995","ARG_OF_PERICENTER":"47.3870","TLE_LINE2":"2 49431  53.2169 148.6452 0002773  47.3870 312.7355 15.08843954 59745","SITE":"AFETR","OBJECT_NAME":"STARLINK-3153","OBJECT_ID":"2021-104Z","EPOCH":"2022-12-10T17:25:11.533152","COUNTRY_CODE":"US","APOAPSIS":"541.652","MEAN_MOTION_DDOT":"0.0000000000000","ELEMENT_SET_NO":"999","RCS_SIZE":"LARGE","OBJECT_TYPE":"PAYLOAD","EPHEMERIS_TYPE":"0","CENTER_NAME":"EARTH"},{"EPHEMERIS_TYPE":"0","CENTER_NAME":"EARTH","RCS_SIZE":"LARGE","OBJECT_TYPE":"PAYLOAD","COUNTRY_CODE":"US","EPOCH":"2022-12-10T15:56:27.788064","ELEMENT_SET_NO":"999","MEAN_MOTION_DDOT":"0.0000000000000","APOAPSIS":"542.506","TLE_LINE2":"2 49432  53.2174 138.9065 0003906  42.1586 317.9706 15.08820962 59875","OBJECT_ID":"2021-104AA","OBJECT_NAME":"STARLINK-3158","SITE":"AFETR","ECCENTRICITY":"0.00039060","ARG_OF_PERICENTER":"42.1586","PERIOD":"95.439","TLE_LINE1":"1 49432U 21104AA  22344.66421051  .00003654  00000-0  24774-3 0  9995","PERIAPSIS":"537.101","MEAN_ANOMALY":"317.9706","REV_AT_EPOCH":"5987","FILE":"3688965","NORAD_CAT_ID":"49432","MEAN_MOTION_DOT":"0.00003654","MEAN_ELEMENT_THEORY":"SGP4","TIME_SYSTEM":"UTC","LAUNCH_DATE":"2021-11-13","SEMIMAJOR_AXIS":"6917.939","RA_OF_ASC_NODE":"138.9065","MEAN_MOTION":"15.08820962","REF_FRAME":"TEME","GP_ID":"219978425","CLASSIFICATION_TYPE":"U","BSTAR":"0.00024774000000","INCLINATION":"53.2174","DECAY_DATE":null},{"TLE_LINE2":"2 49433  53.2176 128.6157 0003251  49.1084 311.0189 15.08838460 61111","OBJECT_NAME":"STARLINK-3079","SITE":"AFETR","OBJECT_ID":"2021-104AB","COUNTRY_CODE":"US","EPOCH":"2022-12-10T17:31:46.368192","ELEMENT_SET_NO":"999","APOAPSIS":"541.999","MEAN_MOTION_DDOT":"0.0000000000000","RCS_SIZE":"LARGE","OBJECT_TYPE":"PAYLOAD","EPHEMERIS_TYPE":"0","CENTER_NAME":"EARTH","CLASSIFICATION_TYPE":"U","BSTAR":"0.00006275100000","GP_ID":"219978676","DECAY_DATE":null,"INCLINATION":"53.2176","TIME_SYSTEM":"UTC","SEMIMAJOR_AXIS":"6917.885","LAUNCH_DATE":"2021-11-13","REF_FRAME":"TEME","RA_OF_ASC_NODE":"128.6157","MEAN_MOTION":"15.08838460","PERIAPSIS":"537.501","MEAN_ANOMALY":"311.0189","REV_AT_EPOCH":"6111","MEAN_ELEMENT_THEORY":"SGP4","MEAN_MOTION_DOT":"0.00000710","FILE":"3688965","NORAD_CAT_ID":"49433","ECCENTRICITY":"0.00032510","ARG_OF_PERICENTER":"49.1084","TLE_LINE1":"1 49433U 21104AB  22344.73039778  .00000710  00000-0  62751-4 0  9993","PERIOD":"95.438"},{"REF_FRAME":"TEME","MEAN_MOTION":"15.08835231","RA_OF_ASC_NODE":"148.7816","SEMIMAJOR_AXIS":"6917.895","LAUNCH_DATE":"2021-11-13","TIME_SYSTEM":"UTC","DECAY_DATE":null,"INCLINATION":"53.2172","CLASSIFICATION_TYPE":"U","BSTAR":"0.00008410800000","GP_ID":"219977424","TLE_LINE1":"1 49434U 21104AC  22344.69543812  .00001050  00000-0  84108-4 0  9996","PERIOD":"95.438","ARG_OF_PERICENTER":"51.5115","ECCENTRICITY":"0.00029830","MEAN_ELEMENT_THEORY":"SGP4","MEAN_MOTION_DOT":"0.00001050","FILE":"3688965","NORAD_CAT_ID":"49434","REV_AT_EPOCH":"6082","MEAN_ANOMALY":"308.6145","PERIAPSIS":"537.696","APOAPSIS":"541.824","MEAN_MOTION_DDOT":"0.0000000000000","ELEMENT_SET_NO":"999","EPOCH":"2022-12-10T16:41:25.853568","COUNTRY_CODE":"US","SITE":"AFETR","OBJECT_NAME":"STARLINK-3134","OBJECT_ID":"2021-104AC","TLE_LINE2":"2 49434  53.2172 148.7816 0002983  51.5115 308.6145 15.08835231 60820","CENTER_NAME":"EARTH","EPHEMERIS_TYPE":"0","OBJECT_TYPE":"PAYLOAD","RCS_SIZE":"LARGE"}];
